NORAD_CAT_ID,OBJECT_NAME,OBJECT_TYPE,EPOCH,MEAN_MOTION,ECCENTRICITY,INCLINATION,RA_OF_ASC_NODE,ARG_OF_PERICENTER,MEAN_ANOMALY,BSTAR,MEAN_MOTION_DOT,MEAN_MOTION_DDOT,TLE_LINE0,TLE_LINE1,TLE_LINE2,SEMIMAJOR_AXIS,PERIOD,APOGEE,PERIGEE,DECAYED
55311.0,STARLINK-5312,PAYLOAD,2023-10-27 12:13:00,14.98346044,0.0002608,70.0027,23.4743,263.6268,96.4594,0.00017626,2.012e-05,0.0,0 STARLINK-5312,1 55311U 23010AU  23300.50903246  .00002012  00000-0  17626-3 0  9998,2 55311  70.0027  23.4743 0002608 263.6268  96.4594 14.98346044 44003,6950.143,96.106,573.821,570.196,0.0
55311.0,STARLINK-5312,PAYLOAD,2023-10-27 23:25:58,14.98328899,0.0003171,70.0017,22.2944,274.5064,85.5733,-0.00011942,-1.518e-05,0.0,0 STARLINK-5312,1 55311U 23010AU  23300.97636819 -.00001518  00000-0 -11942-3 0  9995,2 55311  70.0017  22.2944 0003171 274.5064  85.5733 14.98328899 44072,6950.196,96.107,574.265,569.857,0.0
55311.0,STARLINK-5312,PAYLOAD,2023-10-28 13:51:11,14.98323212,0.0002964,70.0009,20.7799,266.2749,93.8071,-0.00012302,-1.56e-05,0.0,0 STARLINK-5312,1 55311U 23010AU  23301.57721451 -.00001560  00000-0 -12302-3 0  9997,2 55311  70.0009  20.7799 0002964 266.2749  93.8071 14.98323212 45354,6950.214,96.107,574.139,570.019,0.0
55311.0,STARLINK-5312,PAYLOAD,2023-10-28 15:27:19,14.98323429,0.0002908,70.0013,20.6125,265.1732,94.9095,-0.00011683,-1.486e-05,0.0,0 STARLINK-5312,1 55311U 23010AU  23301.64397442 -.00001486  00000-0 -11683-3 0  9992,2 55311  70.0013  20.6125 0002908 265.1732  94.9095 14.98323429 45368,6950.213,96.107,574.099,570.057,0.0
55311.0,STARLINK-5312,PAYLOAD,2023-10-29 04:16:22,14.98333582,0.000331,70.0015,19.265,262.9613,97.1169,-8.7284e-06,-1.97e-06,0.0,0 STARLINK-5312,1 55311U 23010AU  23302.17804322 -.00000197  00000-0 -87284-5 0  9991,2 55311  70.0015  19.2650 0003310 262.9613  97.1169 14.98333582 44253,6950.182,96.107,574.347,569.746,0.0
55311.0,STARLINK-5312,PAYLOAD,2023-10-29 12:16:47,14.98540401,0.0003472,70.0019,18.4229,254.5363,105.5412,0.0020433,0.00024507,0.0,0 STARLINK-5312,1 55311U 23010AU  23302.51166596  .00024507  00000-0  20433-2 0  9992,2 55311  70.0019  18.4229 0003472 254.5363 105.5412 14.98540401 44309,6949.542,96.094,573.82,568.994,0.0
55311.0,STARLINK-5312,PAYLOAD,2023-10-29 20:17:44,14.98313737,0.0002964,70.0016,17.5816,276.5122,83.5699,-0.00018368,-2.283e-05,0.0,0 STARLINK-5312,1 55311U 23010AU  23302.84565511 -.00002283  00000-0 -18368-3 0  9992,2 55311  70.0016  17.5816 0002964 276.5122  83.5699 14.98313737 44357,6950.243,96.108,574.168,570.048,0.0
55311.0,STARLINK-5312,PAYLOAD,2023-10-29 21:53:57,14.98272976,0.0002864,70.0016,17.4132,265.6274,94.4558,-0.0015229,-0.0001819,0.0,0 STARLINK-5312,1 55311U 23010AU  23302.91246885 -.00018190  00000-0 -15229-2 0  9996,2 55311  70.0016  17.4132 0002864 265.6274  94.4558 14.98272976 45550,6950.369,96.111,574.225,570.244,0.0
55311.0,STARLINK-5312,PAYLOAD,2023-10-30 21:55:54,14.98329159,0.0002158,70.002,14.8888,272.7167,87.3745,-0.00079945,-9.618e-05,0.0,0 STARLINK-5312,1 55311U 23010AU  23303.91382818 -.00009618  00000-0 -79945-3 0  9995,2 55311  70.0020  14.8888 0002158 272.7167  87.3745 14.98329159 45702,6950.195,96.107,573.56,570.561,0.0
55311.0,STARLINK-5312,PAYLOAD,2023-10-31 12:21:02,14.98374116,0.0002402,70.0014,13.3731,249.2469,110.8433,0.00056835,6.703e-05,0.0,0 STARLINK-5312,1 55311U 23010AU  23304.51460949  .00006703  00000-0  56835-3 0  9997,2 55311  70.0014  13.3731 0002402 249.2469 110.8433 14.98374116 44609,6950.056,96.104,573.591,570.252,0.0
55311.0,STARLINK-5312,PAYLOAD,2023-10-31 13:57:16,14.9829457,0.0002411,70.0013,13.205,257.8268,102.2621,-0.00032811,-4.002e-05,0.0,0 STARLINK-5312,1 55311U 23010AU  23304.58143836 -.00004002  00000-0 -32811-3 0  9997,2 55311  70.0013  13.2050 0002411 257.8268 102.2621 14.98294570 45805,6950.302,96.109,573.843,570.492,0.0
55311.0,STARLINK-5312,PAYLOAD,2023-10-31 20:21:49,14.98282266,0.0002484,70.0015,12.5316,283.2386,76.8496,-0.00057251,-6.909e-05,0.0,0 STARLINK-5312,1 55311U 23010AU  23304.84849193 -.00006909  00000-0 -57251-3 0  9998,2 55311  70.0015  12.5316 0002484 283.2386  76.8496 14.98282266 44655,6950.341,96.11,573.932,570.479,0.0
55311.0,STARLINK-5312,PAYLOAD,2023-11-01 12:23:04,14.98343906,0.0002532,70.002,10.8487,239.6099,120.481,0.00037981,4.443e-05,0.0,0 STARLINK-5312,1 55311U 23010AU  23305.51602962  .00004443  00000-0  37981-3 0  9991,2 55311  70.0020  10.8487 0002532 239.6099 120.4810 14.98343906 44757,6950.15,96.106,573.775,570.255,0.0
55311.0,STARLINK-5312,PAYLOAD,2023-11-01 13:59:14,14.98329457,0.0002522,70.0009,10.681,268.3782,91.7089,0.00019384,2.221e-05,0.0,0 STARLINK-5312,1 55311U 23010AU  23305.58280397  .00002221  00000-0  19384-3 0  9991,2 55311  70.0009  10.6810 0002522 268.3782  91.7089 14.98329457 45955,6950.195,96.107,573.812,570.307,0.0
55311.0,STARLINK-5312,PAYLOAD,2023-11-01 15:35:22,14.98333893,0.0002601,70.0005,10.5119,267.0524,93.0337,0.00022365,2.577e-05,0.0,0 STARLINK-5312,1 55311U 23010AU  23305.64956024  .00002577  00000-0  22365-3 0  9992,2 55311  70.0005  10.5119 0002601 267.0524  93.0337 14.98333893 44779,6950.181,96.107,573.854,570.238,0.0
55311.0,STARLINK-5312,PAYLOAD,2023-11-01 21:59:55,14.98321383,0.0002678,70.0008,9.8385,271.5802,88.505,-1.4645e-06,-1.1e-06,0.0,0 STARLINK-5312,1 55311U 23010AU  23305.91661380 -.00000110  00000-0 -14645-5 0  9997,2 55311  70.0008   9.8385 0002678 271.5802  88.5050 14.98321383 46001,6950.22,96.108,573.946,570.223,0.0
55311.0,STARLINK-5312,PAYLOAD,2023-11-02 04:24:27,14.98326126,0.0002718,70.0007,9.1661,271.5661,88.5187,-5.7131e-06,-1.61e-06,0.0,0 STARLINK-5312,1 55311U 23010AU  23306.18365166 -.00000161  00000-0 -57131-5 0  9993,2 55311  70.0007   9.1661 0002718 271.5661  88.5187 14.98326126 44850,6950.205,96.107,573.959,570.181,0.0
55311.0,STARLINK-5312,PAYLOAD,2023-11-02 12:25:07,14.98335659,0.0002756,70.0006,8.3235,268.6788,91.4055,6.8938e-05,7.3e-06,0.0,0 STARLINK-5312,1 55311U 23010AU  23306.51744343  .00000730  00000-0  68938-4 0  9994,2 55311  70.0006   8.3235 0002756 268.6788  91.4055 14.98335659 44900,6950.175,96.107,573.956,570.125,0.0
55311.0,STARLINK-5312,PAYLOAD,2023-11-02 14:01:15,14.98323094,0.0002767,70.0008,8.1554,258.8617,101.2231,0.00022552,2.598e-05,0.0,0 STARLINK-5312,1 55311U 23010AU  23306.58420638  .00002598  00000-0  22552-3 0  9994,2 55311  70.0008   8.1554 0002767 258.8617 101.2231 14.98323094 46108,6950.214,96.107,574.002,570.156,0.0
55311.0,STARLINK-5312,PAYLOAD,2023-11-02 22:01:57,14.9828884,0.0002475,70.0014,7.3141,294.9061,65.184,0.00064923,7.654e-05,0.0,0 STARLINK-5312,1 55311U 23010AU  23306.91802369  .00007654  00000-0  64923-3 0  9992,2 55311  70.0014   7.3141 0002475 294.9061  65.1840 14.98288840 46156,6950.32,96.11,573.905,570.465,0.0
55311.0,STARLINK-5312,PAYLOAD,2023-11-03 14:03:16,14.98333374,0.0002527,70.0009,5.6306,261.8725,98.2148,-6.2951e-06,-1.68e-06,0.0,0 STARLINK-5312,1 55311U 23010AU  23307.58560547 -.00000168  00000-0 -62951-5 0  9991,2 55311  70.0009   5.6306 0002527 261.8725  98.2148 14.98333374 46254,6950.182,96.107,573.804,570.291,0.0
55311.0,STARLINK-5312,PAYLOAD,2023-11-04 14:05:17,14.98327288,0.000277,70.001,3.1068,267.424,92.6602,6.1717e-07,-8.6e-07,0.0,0 STARLINK-5312,1 55311U 23010AU  23308.58700917 -.00000086  00000-0  61717-6 0  9997,2 55311  70.0010   3.1068 0002770 267.4240  92.6602 14.98327288 46405,6950.201,96.107,573.991,570.141,0.0
55311.0,STARLINK-5312,PAYLOAD,2023-11-04 20:29:49,14.98359827,0.0002879,70.001,2.4335,267.3596,92.7233,-0.00054142,-6.552e-05,0.0,0 STARLINK-5312,1 55311U 23010AU  23308.85404068 -.00006552  00000-0 -54142-3 0  9991,2 55311  70.0010   2.4335 0002879 267.3596  92.7233 14.98359827 45254,6950.101,96.105,573.967,569.965,0.0
55311.0,STARLINK-5312,PAYLOAD,2023-11-05 04:30:29,14.98333084,0.0002791,70.0006,1.5912,268.7199,91.3641,5.5019e-05,5.64e-06,0.0,0 STARLINK-5312,1 55311U 23010AU  23309.18784404  .00000564  00000-0  55019-4 0  9993,2 55311  70.0006   1.5912 0002791 268.7199  91.3641 14.98333084 45308,6950.183,96.107,573.988,570.109,0.0
55311.0,STARLINK-5312,PAYLOAD,2023-11-05 10:55:01,14.98340264,0.0002488,70.001,0.9171,271.5847,88.5027,0.0001453,1.642e-05,0.0,0 STARLINK-5312,1 55311U 23010AU  23309.45487715  .00001642  00000-0  14530-3 0  9998,2 55311  70.0010   0.9171 0002488 271.5847  88.5027 14.98340264 45346,6950.161,96.106,573.755,570.297,0.0
55311.0,STARLINK-5312,PAYLOAD,2023-11-05 14:07:17,14.98344802,0.0002492,70.001,0.5814,264.3148,95.7727,7.5753e-05,8.11e-06,0.0,0 STARLINK-5312,1 55311U 23010AU  23309.58839445  .00000811  00000-0  75753-4 0  9995,2 55311  70.0010   0.5814 0002492 264.3148  95.7727 14.98344802 46558,6950.147,96.106,573.744,570.28,0.0
55311.0,STARLINK-5312,PAYLOAD,2023-11-05 20:31:49,14.98356718,0.0002726,70.0006,359.9079,274.0379,86.0469,-0.00022405,-2.767e-05,0.0,0 STARLINK-5312,1 55311U 23010AU  23309.85543257 -.00002767  00000-0 -22405-3 0  9997,2 55311  70.0006 359.9079 0002726 274.0379  86.0469 14.98356718 46590,6950.11,96.105,573.87,570.081,0.0
55311.0,STARLINK-5312,PAYLOAD,2023-11-06 10:57:01,14.98339331,0.0002618,70.0008,358.3923,266.5745,93.5115,0.00013693,1.542e-05,0.0,0 STARLINK-5312,1 55311U 23010AU  23310.45627225  .00001542  00000-0  13693-3 0  9990,2 55311  70.0008 358.3923 0002618 266.5745  93.5115 14.98339331 45497,6950.164,96.106,573.849,570.209,0.0
55311.0,STARLINK-5312,PAYLOAD,2023-11-06 12:33:09,14.98339066,0.0002467,70.0017,358.2253,265.5692,94.5186,0.00015098,1.709e-05,0.0,0 STARLINK-5312,1 55311U 23010AU  23310.52303166  .00001709  00000-0  15098-3 0  9999,2 55311  70.0017 358.2253 0002467 265.5692  94.5186 14.98339066 46691,6950.165,96.106,573.744,570.315,0.0
55311.0,STARLINK-5312,PAYLOAD,2023-11-07 02:58:25,14.9831588,0.0002321,70.002,356.7104,265.2589,94.8305,-0.0002717,-3.332e-05,0.0,0 STARLINK-5312,1 55311U 23010AU  23311.12390123 -.00003332  00000-0 -27170-3 0  9995,2 55311  70.0020 356.7104 0002321 265.2589  94.8305 14.98315880 45596,6950.237,96.108,573.715,570.488,0.0
